CCSDS_OMM_VERS = 2.0
CREATION_DATE  = 
ORIGINATOR     = 

OBJECT_NAME    = TITAN 4B R/B
OBJECT_ID      = 2000-047B
CENTER_NAME    = EARTH
REF_FRAME      = TEME
TIME_SYSTEM    = UTC
MEAN_ELEMENT_THEORY = SGP/SGP4

EPOCH          = 2025-11-12T21:47:58.228512
MEAN_MOTION    = 15.08468993
ECCENTRICITY   = .00416699
INCLINATION    = 67.9917
RA_OF_ASC_NODE = 8.6180
ARG_OF_PERICENTER = 179.5175
MEAN_ANOMALY   = 180.6022

EPHEMERIS_TYPE = 0
CLASSIFICATION_TYPE = U
NORAD_CAT_ID   = 26474
ELEMENT_SET_NO = 999
REV_AT_EPOCH   = 37529
BSTAR          = .60154066E-3
MEAN_MOTION_DOT = .9465E-4
MEAN_MOTION_DDOT = 0

CCSDS_OMM_VERS = 2.0
CREATION_DATE  = 
ORIGINATOR     = 

OBJECT_NAME    = ENVISAT
OBJECT_ID      = 2002-009A
CENTER_NAME    = EARTH
REF_FRAME      = TEME
TIME_SYSTEM    = UTC
MEAN_ELEMENT_THEORY = SGP/SGP4

EPOCH          = 2025-11-12T20:39:01.050912
MEAN_MOTION    = 14.38982663
ECCENTRICITY   = .00012977
INCLINATION    = 98.3552
RA_OF_ASC_NODE = 268.3660
ARG_OF_PERICENTER = 82.6107
MEAN_ANOMALY   = 304.1440

EPHEMERIS_TYPE = 0
CLASSIFICATION_TYPE = U
NORAD_CAT_ID   = 27386
ELEMENT_SET_NO = 999
REV_AT_EPOCH   = 24237
BSTAR          = .12424434E-3
MEAN_MOTION_DOT = .341E-5
MEAN_MOTION_DDOT = 0

CCSDS_OMM_VERS = 2.0
CREATION_DATE  = 
ORIGINATOR     = 

OBJECT_NAME    = IDEFIX & ARIANE 42P R/B
OBJECT_ID      = 2002-021B
CENTER_NAME    = EARTH
REF_FRAME      = TEME
TIME_SYSTEM    = UTC
MEAN_ELEMENT_THEORY = SGP/SGP4

EPOCH          = 2025-11-12T14:03:21.290976
MEAN_MOTION    = 14.30917101
ECCENTRICITY   = .00118671
INCLINATION    = 98.5739
RA_OF_ASC_NODE = 251.6754
ARG_OF_PERICENTER = 166.9376
MEAN_ANOMALY   = 193.2116

EPHEMERIS_TYPE = 0
CLASSIFICATION_TYPE = U
NORAD_CAT_ID   = 27422
ELEMENT_SET_NO = 999
REV_AT_EPOCH   = 22727
BSTAR          = .28024347E-3
MEAN_MOTION_DOT = .693E-5
MEAN_MOTION_DDOT = 0

CCSDS_OMM_VERS = 2.0
CREATION_DATE  = 
ORIGINATOR     = 

OBJECT_NAME    = AQUA
OBJECT_ID      = 2002-022A
CENTER_NAME    = EARTH
REF_FRAME      = TEME
TIME_SYSTEM    = UTC
MEAN_ELEMENT_THEORY = SGP/SGP4

EPOCH          = 2025-11-12T21:58:45.780096
MEAN_MOTION    = 14.61703700
ECCENTRICITY   = .00008258
INCLINATION    = 98.3991
RA_OF_ASC_NODE = 277.3195
ARG_OF_PERICENTER = 54.7910
MEAN_ANOMALY   = 20.3948

EPHEMERIS_TYPE = 0
CLASSIFICATION_TYPE = U
NORAD_CAT_ID   = 27424
ELEMENT_SET_NO = 999
REV_AT_EPOCH   = 25167
BSTAR          = .67156736E-3
MEAN_MOTION_DOT = .3297E-4
MEAN_MOTION_DDOT = 0

CCSDS_OMM_VERS = 2.0
CREATION_DATE  = 
ORIGINATOR     = 

OBJECT_NAME    = CZ-4B R/B
OBJECT_ID      = 2002-024C
CENTER_NAME    = EARTH
REF_FRAME      = TEME
TIME_SYSTEM    = UTC
MEAN_ELEMENT_THEORY = SGP/SGP4

EPOCH          = 2025-11-12T21:19:14.564928
MEAN_MOTION    = 14.14518882
ECCENTRICITY   = .00500353
INCLINATION    = 98.9045
RA_OF_ASC_NODE = 5.7576
ARG_OF_PERICENTER = 355.8866
MEAN_ANOMALY   = 177.5278

EPHEMERIS_TYPE = 0
CLASSIFICATION_TYPE = U
NORAD_CAT_ID   = 27432
ELEMENT_SET_NO = 999
REV_AT_EPOCH   = 21272
BSTAR          = .10491685E-3
MEAN_MOTION_DOT = .159E-5
MEAN_MOTION_DDOT = 0

CCSDS_OMM_VERS = 2.0
CREATION_DATE  = 
ORIGINATOR     = 

OBJECT_NAME    = MIDORI II (ADEOS-II)
OBJECT_ID      = 2002-056A
CENTER_NAME    = EARTH
REF_FRAME      = TEME
TIME_SYSTEM    = UTC
MEAN_ELEMENT_THEORY = SGP/SGP4

EPOCH          = 2025-11-12T14:40:22.602144
MEAN_MOTION    = 14.29174817
ECCENTRICITY   = .00013512
INCLINATION    = 98.7588
RA_OF_ASC_NODE = 269.4174
ARG_OF_PERICENTER = 34.2594
MEAN_ANOMALY   = 325.8674

EPHEMERIS_TYPE = 0
CLASSIFICATION_TYPE = U
NORAD_CAT_ID   = 27597
ELEMENT_SET_NO = 999
REV_AT_EPOCH   = 19357
BSTAR          = .28101541E-3
MEAN_MOTION_DOT = .668E-5
MEAN_MOTION_DDOT = 0

CCSDS_OMM_VERS = 2.0
CREATION_DATE  = 
ORIGINATOR     = 

OBJECT_NAME    = H-2A R/B
OBJECT_ID      = 2002-056E
CENTER_NAME    = EARTH
REF_FRAME      = TEME
TIME_SYSTEM    = UTC
MEAN_ELEMENT_THEORY = SGP/SGP4

EPOCH          = 2025-11-12T20:55:13.058688
MEAN_MOTION    = 14.33643868
ECCENTRICITY   = .00708544
INCLINATION    = 98.3021
RA_OF_ASC_NODE = 276.8255
ARG_OF_PERICENTER = 148.8483
MEAN_ANOMALY   = 231.7537

EPHEMERIS_TYPE = 0
CLASSIFICATION_TYPE = U
NORAD_CAT_ID   = 27601
ELEMENT_SET_NO = 999
REV_AT_EPOCH   = 19737
BSTAR          = .23420461E-3
MEAN_MOTION_DOT = .627E-5
MEAN_MOTION_DDOT = 0

CCSDS_OMM_VERS = 2.0
CREATION_DATE  = 
ORIGINATOR     = 

OBJECT_NAME    = CZ-4B R/B
OBJECT_ID      = 2003-049C
CENTER_NAME    = EARTH
REF_FRAME      = TEME
TIME_SYSTEM    = UTC
MEAN_ELEMENT_THEORY = SGP/SGP4

EPOCH          = 2025-11-12T22:53:42.284832
MEAN_MOTION    = 14.54869077
ECCENTRICITY   = .00473562
INCLINATION    = 98.6770
RA_OF_ASC_NODE = 302.3962
ARG_OF_PERICENTER = 227.1216
MEAN_ANOMALY   = 132.5999

EPHEMERIS_TYPE = 0
CLASSIFICATION_TYPE = U
NORAD_CAT_ID   = 28059
ELEMENT_SET_NO = 999
REV_AT_EPOCH   = 16962
BSTAR          = .24448033E-3
MEAN_MOTION_DOT = .1014E-4
MEAN_MOTION_DDOT = 0

CCSDS_OMM_VERS = 2.0
CREATION_DATE  = 
ORIGINATOR     = 

OBJECT_NAME    = CZ-2C R/B
OBJECT_ID      = 2004-012C
CENTER_NAME    = EARTH
REF_FRAME      = TEME
TIME_SYSTEM    = UTC
MEAN_ELEMENT_THEORY = SGP/SGP4

EPOCH          = 2025-11-12T14:33:45.773856
MEAN_MOTION    = 15.52825300
ECCENTRICITY   = .00193147
INCLINATION    = 97.7478
RA_OF_ASC_NODE = 6.7957
ARG_OF_PERICENTER = 24.1977
MEAN_ANOMALY   = 336.0178

EPHEMERIS_TYPE = 0
CLASSIFICATION_TYPE = U
NORAD_CAT_ID   = 28222
ELEMENT_SET_NO = 999
REV_AT_EPOCH   = 18604
BSTAR          = .10172385E-2
MEAN_MOTION_DOT = .63833E-3
MEAN_MOTION_DDOT = 0

CCSDS_OMM_VERS = 2.0
CREATION_DATE  = 
ORIGINATOR     = 

OBJECT_NAME    = SL-16 R/B
OBJECT_ID      = 2004-021B
CENTER_NAME    = EARTH
REF_FRAME      = TEME
TIME_SYSTEM    = UTC
MEAN_ELEMENT_THEORY = SGP/SGP4

EPOCH          = 2025-11-12T20:25:39.932832
MEAN_MOTION    = 14.14572381
ECCENTRICITY   = .00065819
INCLINATION    = 70.9977
RA_OF_ASC_NODE = 117.6850
ARG_OF_PERICENTER = 230.6456
MEAN_ANOMALY   = 129.4084

EPHEMERIS_TYPE = 0
CLASSIFICATION_TYPE = U
NORAD_CAT_ID   = 28353
ELEMENT_SET_NO = 999
REV_AT_EPOCH   = 10631
BSTAR          = .18475702E-3
MEAN_MOTION_DOT = .307E-5
MEAN_MOTION_DDOT = 0

CCSDS_OMM_VERS = 2.0
CREATION_DATE  = 
ORIGINATOR     = 

OBJECT_NAME    = CZ-4B R/B
OBJECT_ID      = 2004-035C
CENTER_NAME    = EARTH
REF_FRAME      = TEME
TIME_SYSTEM    = UTC
MEAN_ELEMENT_THEORY = SGP/SGP4

EPOCH          = 2025-11-12T19:28:23.601792
MEAN_MOTION    = 15.26683151
ECCENTRICITY   = .00345809
INCLINATION    = 97.3655
RA_OF_ASC_NODE = 347.5632
ARG_OF_PERICENTER = 25.7637
MEAN_ANOMALY   = 334.5314

EPHEMERIS_TYPE = 0
CLASSIFICATION_TYPE = U
NORAD_CAT_ID   = 28415
ELEMENT_SET_NO = 999
REV_AT_EPOCH   = 16206
BSTAR          = .66587294E-3
MEAN_MOTION_DOT = .17733E-3
MEAN_MOTION_DDOT = 0

CCSDS_OMM_VERS = 2.0
CREATION_DATE  = 
ORIGINATOR     = 

OBJECT_NAME    = CZ-2C R/B
OBJECT_ID      = 2004-046B
CENTER_NAME    = EARTH
REF_FRAME      = TEME
TIME_SYSTEM    = UTC
MEAN_ELEMENT_THEORY = SGP/SGP4

EPOCH          = 2025-11-12T17:41:02.553504
MEAN_MOTION    = 14.26920636
ECCENTRICITY   = .01402605
INCLINATION    = 98.1961
RA_OF_ASC_NODE = 233.9842
ARG_OF_PERICENTER = 140.3389
MEAN_ANOMALY   = 220.8154

EPHEMERIS_TYPE = 0
CLASSIFICATION_TYPE = U
NORAD_CAT_ID   = 28480
ELEMENT_SET_NO = 999
REV_AT_EPOCH   = 9182
BSTAR          = .14783279E-3
MEAN_MOTION_DOT = .358E-5
MEAN_MOTION_DDOT = 0

