TITAN 4B R/B            
1 26474U 00047B   25316.90831283  .00009465  00000+0  60154-3 0  9997
2 26474  67.9917   8.6180 0041669 179.5175 180.6022 15.08468993375296
ENVISAT                 
1 27386U 02009A   25316.86042883  .00000341  00000+0  12424-3 0  9996
2 27386  98.3552 268.3660 0001297  82.6107 304.1440 14.38982663242378
IDEFIX & ARIANE 42P R/B 
1 27422U 02021B   25316.58566309  .00000693  00000+0  28024-3 0  9997
2 27422  98.5739 251.6754 0011867 166.9376 193.2116 14.30917101227271
AQUA                    
1 27424U 02022A   25316.91580764  .00003297  00000+0  67157-3 0  9991
2 27424  98.3991 277.3195 0000825  54.7910  20.3948 14.61703700251671
CZ-4B R/B               
1 27432U 02024C   25316.88836302  .00000159  00000+0  10492-3 0  9994
2 27432  98.9045   5.7576 0050035 355.8866 177.5278 14.14518882212722
MIDORI II (ADEOS-II)    
1 27597U 02056A   25316.61137271  .00000668  00000+0  28102-3 0  9993
2 27597  98.7588 269.4174 0001351  34.2594 325.8674 14.29174817193571
H-2A R/B                
1 27601U 02056E   25316.87167892  .00000627  00000+0  23420-3 0  9992
2 27601  98.3021 276.8255 0070854 148.8483 231.7537 14.33643868197377
CZ-4B R/B               
1 28059U 03049C   25316.95396163  .00001014  00000+0  24448-3 0  9999
2 28059  98.6770 302.3962 0047356 227.1216 132.5999 14.54869077169627
CZ-2C R/B               
1 28222U 04012C   25316.60677979  .00063833  00000+0  10172-2 0  9996
2 28222  97.7478   6.7957 0019314  24.1977 336.0178 15.52825300186040
SL-16 R/B               
1 28353U 04021B   25316.85115663  .00000307  00000+0  18476-3 0  9998
2 28353  70.9977 117.6850 0006581 230.6456 129.4084 14.14572381106311
CZ-4B R/B               
1 28415U 04035C   25316.81138428  .00017733  00000+0  66587-3 0  9999
2 28415  97.3655 347.5632 0034580  25.7637 334.5314 15.26683151162063
CZ-2C R/B               
1 28480U 04046B   25316.73683511  .00000358  00000+0  14783-3 0  9998
2 28480  98.1961 233.9842 0140260 140.3389 220.8154 14.26920636 91821
